OBJECT_NAME,OBJECT_ID,EPOCH,MEAN_MOTION,ECCENTRICITY,INCLINATION,RA_OF_ASC_NODE,ARG_OF_PERICENTER,MEAN_ANOMALY,EPHEMERIS_TYPE,CLASSIFICATION_TYPE,NORAD_CAT_ID,ELEMENT_SET_NO,REV_AT_EPOCH,BSTAR,MEAN_MOTION_DOT,MEAN_MOTION_DDOT
RADFXSAT (FOX-1B),2017-073E,2026-05-16T04:28:08.766912,15.12096414,.01538388,97.4747,4.0662,79.2594,282.5914,0,U,43017,999,46055,.38239312E-3,.8724E-4,0
JILIN-1 04,2017-074A,2026-05-16T06:55:44.150880,15.41590917,.00027777,97.4832,245.0784,323.2964,36.8092,0,U,43022,999,46935,.27338311E-3,.11412E-3,0
JILIN-1 05,2017-074B,2026-05-16T05:09:31.546944,15.33352761,.00047769,97.4839,241.9555,357.9911,2.1311,0,U,43023,999,46910,.19469654E-3,.6196E-4,0
JILIN-1 06,2017-074C,2026-05-16T05:59:28.140864,15.33315322,.00067541,97.4767,239.0363,5.9818,354.1504,0,U,43024,999,46894,.14745198E-3,.4668E-4,0
IRIDIUM 116,2017-083C,2026-05-16T01:14:27.463200,14.34219299,.00020486,86.3960,335.4428,79.8466,280.2961,0,U,43072,999,43956,.43938354E-4,.143E-5,0
IRIDIUM 130,2017-083D,2026-05-16T02:09:15.169824,14.34218098,.00022303,86.3968,335.6992,81.6268,278.5180,0,U,43073,999,43951,.19253997E-4,.74E-6,0
LKW-2,2017-084A,2026-05-16T07:02:24.576864,15.25887034,.00024828,97.1219,177.5860,45.2771,314.8670,0,U,43080,999,46682,.11613055E-3,.2908E-4,0
SUPERVIEW-1 03,2018-002A,2026-05-16T05:38:19.102848,15.38218853,.00463042,97.3137,221.1482,296.4598,63.1901,0,U,43099,999,46345,.3678103E-3,.14287E-3,0
CARTOSAT-2F,2018-004A,2026-05-15T16:06:30.657024,15.19198936,.00016568,97.4809,195.6183,54.3669,305.7720,0,U,43111,999,46239,.86324346E-4,.1748E-4,0
LKW-3,2018-006A,2026-05-16T07:19:20.684928,15.34585153,.00040654,97.6575,295.6570,71.5625,288.6059,0,U,43146,999,46382,.19184765E-3,.6344E-4,0
ASNARO-2,2018-007A,2026-05-16T07:23:52.365408,15.22428574,.00017536,97.3980,143.7312,93.2368,266.9069,0,U,43152,999,46256,.32400567E-3,.7424E-4,0
JILIN-1 07,2018-008E,2026-05-16T06:27:16.207776,15.34161401,.00089995,97.1786,157.0596,160.1791,199.9804,0,U,43159,999,46010,.2165625E-3,.7092E-4,0
JILIN-1 08,2018-008F,2026-05-16T07:33:32.421312,15.33276560,.00063515,97.1815,156.4516,169.7128,190.4247,0,U,43160,999,46006,.22035282E-3,.7013E-4,0
LEMUR-2-KADI,2018-014E,2026-05-15T08:00:12.068064,15.86051934,.00052031,97.4474,64.7468,108.8120,251.3716,0,U,43184,999,45586,.10438387E-2,.26335E-2,0
S-NET D,2018-014G,2026-05-16T04:42:35.499744,15.16349608,.00097616,97.5392,41.1909,122.7992,237.4183,0,U,43186,999,45391,.18816286E-3,.3586E-4,0
S-NET B,2018-014H,2026-05-16T04:58:11.213472,15.16319774,.00105148,97.5397,41.1872,119.0137,241.2151,0,U,43187,999,45391,.19680759E-3,.3751E-4,0
S-NET A,2018-014J,2026-05-15T16:01:00.499296,15.16351435,.00103011,97.5407,40.8537,121.2090,239.0153,0,U,43188,999,45383,.16440105E-3,.3125E-4,0
S-NET C,2018-014K,2026-05-16T05:03:31.330656,15.16311084,.00118619,97.5424,41.4635,113.9329,246.3148,0,U,43189,999,45246,.20164677E-3,.3845E-4,0
PAZ,2018-020A,2026-05-16T07:01:22.195200,15.19157739,.00017201,97.4457,144.1315,87.7104,272.4327,0,U,43215,999,45616,.59080196E-4,.1174E-4,0
GOES 17,2018-022A,2026-05-16T05:25:44.565600,1.00270709,.00004679,0.8568,86.1375,322.5153,177.2444,0,U,43226,999,3010,0,-.171E-5,0
LKW-4,2018-025A,2026-05-16T00:37:31.229760,15.59698984,.00030127,97.6326,304.4512,78.7507,281.4088,0,U,43236,999,45501,.40990606E-3,.32704E-3,0
ZHUHAI-1 OVS-02,2018-040B,2026-05-16T06:31:42.780288,15.24571239,.00044819,97.0405,155.4025,41.6534,318.5045,0,U,43440,999,44785,.22789643E-3,.555E-4,0
ZHUHAI-1 OHS-02,2018-040C,2026-05-16T08:09:52.118784,15.25387866,.00088196,97.0390,162.3745,357.5375,2.5819,0,U,43441,999,10942,.2647674E-3,.6624E-4,0
GAOFEN-6,2018-048A,2026-05-16T06:57:10.682208,14.76591639,.00105167,97.7780,200.1395,279.9970,80.0053,0,U,43484,999,42868,.76598538E-4,.486E-5,0
LUOJIA-1 01,2018-048B,2026-05-16T03:33:48.547584,14.87151466,.00080078,97.8107,214.8527,219.8376,140.2253,0,U,43485,999,42945,.44919939E-4,.35E-5,0
PAKTES 1A,2018-056A,2026-05-16T07:08:27.683232,14.98910481,.0021508,98.1216,291.4346,213.4321,146.5544,0,U,43529,999,42714,.11714156E-3,.1356E-4,0
PRSS-1,2018-056B,2026-05-16T07:41:46.561920,14.81932124,.00018271,97.7836,205.0714,92.9176,267.2247,0,U,43530,999,42371,-.23595153E-4,-.238E-5,0
HAIYANG-1C,2018-068A,2026-05-16T07:00:19.530144,14.34167770,.00107919,98.5203,209.0588,182.7199,177.3929,0,U,43609,999,40251,-.19300139E-4,-.98E-6,0
SSTL S1-4,2018-071A,2026-05-16T07:42:16.471872,14.96171103,.00011614,97.5072,9.2541,73.0232,287.1117,0,U,43618,999,41817,.73460348E-4,.773E-5,0
HAIYANG-2B,2018-081A,2026-05-16T07:38:38.817312,13.79306741,.00016091,99.3293,145.5548,48.3335,311.7955,0,U,43655,999,38053,.255802E-3,.218E-5,0
CZ-4B R/B,2018-081B,2026-05-16T06:01:37.623360,14.31851841,.02048221,99.3692,51.6282,359.0580,1.0187,0,U,43656,999,39473,.48013011E-4,.103E-5,0
CFOSAT,2018-083A,2026-05-16T06:54:26.633664,15.16491846,.00017123,97.3616,141.7579,60.5118,299.6286,0,U,43662,999,41760,.11388431E-3,.2153E-4,0
TEN-KOH,2018-084G,2026-05-16T07:09:03.301632,15.02782229,.00086001,98.0754,327.3222,220.3981,139.6605,0,U,43677,999,41137,.7037568E-4,.875E-5,0
DIWATA-2B,2018-084H,2026-05-16T06:59:32.756640,15.00285501,.00118216,98.1105,331.1312,281.2830,78.7063,0,U,43678,999,41143,.15323502E-3,.1856E-4,0
STARS-AO,2018-084J,2026-05-16T06:39:27.820512,15.16674069,.00006133,98.0533,348.2865,280.8332,79.2830,0,U,43679,999,41263,.25372501E-3,.4892E-4,0
AUTCUBE 2,2018-084K,2026-05-16T06:56:37.502016,15.09856685,.00098892,98.0734,340.7747,143.7014,216.4886,0,U,43681,999,41211,.16004421E-3,.2521E-4,0
METOP-C,2018-087A,2026-05-16T06:04:05.156544,14.21502761,.0000358,98.6660,196.4368,137.3493,222.7712,0,U,43689,999,39029,.48489196E-4,.63E-6,0
ES'HAIL 2,2018-090A,2026-05-16T05:58:41.040768,1.00268258,.00011882,0.0165,293.4846,145.4104,270.5720,0,U,43700,999,2735,0,.155E-5,0
MOHAMMED VI-B,2018-095A,2026-05-16T04:52:07.230144,14.77070795,.0001276,97.9568,208.9663,81.1163,279.0191,0,U,43717,999,40346,-.6293124E-5,-.95E-6,0
HYSIS,2018-096A,2026-05-16T03:15:37.967040,14.78621124,.0000898,97.9857,203.1319,110.2019,249.9289,0,U,43719,999,40268,.54787801E-4,.349E-5,0
COSMOS 2530 (RODNIK-S 16),2018-097A,2026-05-16T06:11:53.681280,12.42880726,.00207898,82.5151,242.0934,105.9974,254.3398,0,U,43751,999,33832,.40122354E-3,.66E-6,0
COSMOS 2531 (RODNIK-S 17),2018-097B,2026-05-16T06:45:06.607872,12.42912268,.00179115,82.5195,243.1268,123.7341,236.5449,0,U,43752,999,33834,.3274155E-3,.55E-6,0
COSMOS 2532 (RODNIK-S 18),2018-097C,2026-05-16T07:25:42.593664,12.42908807,.00192657,82.5141,241.9097,125.7748,234.5126,0,U,43753,999,33831,.19189464E-3,.37E-6,0
MINXSS-2,2018-099A,2026-05-16T04:15:10.984608,15.44700973,.0007172,97.4552,211.5784,32.9566,327.2128,0,U,43758,999,40918,.72027224E-3,.33655E-3,0
SIRION PATHFINDER-2,2018-099B,2026-05-16T06:25:09.508224,15.14238111,.00100644,97.4277,186.0869,57.9700,302.2508,0,U,43759,999,40779,.21501404E-3,.3869E-4,0
AISTECHSAT 2,2018-099L,2026-05-16T06:13:17.205888,15.15100869,.00060503,97.4318,184.9959,63.0406,297.1444,0,U,43768,999,40744,.21935678E-3,.4043E-4,0
FOX-1CLIFF (AO-95),2018-099N,2026-05-16T03:36:55.289088,15.25969708,.00104486,97.4408,196.5298,101.6931,258.5480,0,U,43770,999,40833,.3352844E-3,.8555E-4,0
2018-099Q,2018-099Q,2026-05-16T03:38:21.969888,15.74050193,.00040844,97.4191,215.1696,249.5169,110.5657,0,U,43772,999,40960,.11679203E-2,.169129E-2,0
RANGE-A,2018-099R,2026-05-16T02:34:16.400928,15.13090624,.00121394,97.3990,179.6278,98.3366,261.9242,0,U,43773,999,40764,.17091787E-3,.2966E-4,0
SNUSAT-2,2018-099AA,2026-05-16T02:37:13.120032,15.21312787,.00115259,97.4081,189.9947,55.6967,304.5358,0,U,43782,999,40815,.28202836E-3,.6253E-4,0
SNUGLITE,2018-099AC,2026-05-16T02:17:02.474592,15.26430130,.00040356,97.3895,190.7053,65.8768,294.2892,0,U,43784,999,40842,.34147894E-3,.8826E-4,0
ITASAT,2018-099AE,2026-05-16T03:13:57.862272,15.18613305,.00143879,97.4053,188.2925,104.1860,256.0974,0,U,43786,999,40804,.24306755E-3,.4976E-4,0
EAGLET-I,2018-099AJ,2026-05-16T02:31:20.483616,15.12674524,.0012883,97.4257,186.6258,96.8843,263.3854,0,U,43790,999,40748,.15884328E-3,.272E-4,0
ESEO,2018-099AL,2026-05-16T01:11:47.333760,15.04142701,.00135045,97.4000,174.8120,84.6689,275.6078,0,U,43792,999,40697,.11188277E-3,.1496E-4,0
THEA,2018-099AQ,2026-05-16T04:22:47.776224,15.33866649,.00080415,97.4463,205.5893,49.9841,310.2106,0,U,43796,999,40778,.48347252E-3,.15787E-3,0
ASTROCAST 0.1,2018-099AS,2026-05-16T04:58:37.372800,15.47339424,.00036657,97.4392,213.7614,345.7159,14.3986,0,U,43798,999,40948,.62679198E-3,.32015E-3,0
JY1SAT (JO-97),2018-099AX,2026-05-16T05:51:40.087008,15.32578300,.00060632,97.4151,198.9910,40.9469,319.2227,0,U,43803,999,40873,.47581058E-3,.1491E-3,0
SUOMI-100,2018-099AY,2026-05-16T05:58:25.475808,15.27630859,.00107303,97.4210,196.7764,42.4269,317.7798,0,U,43804,999,40854,.40315041E-3,.10838E-3,0
CENTAURI-1,2018-099BD,2026-05-16T06:19:32.194848,15.16014036,.0015866,97.4244,188.6727,81.3163,278.9867,0,U,43809,999,40766,.21583845E-3,.4093E-4,0
GLOBAL-2,2018-099BG,2026-05-16T05:40:25.741056,15.08473902,.00041765,97.3583,174.0793,260.7111,99.3646,0,U,43812,999,40709,.1413165E-3,.2142E-4,0
SEAHAWK-1,2018-099BQ,2026-05-16T06:15:32.261184,15.22244493,.00097479,97.3982,189.2426,68.6564,291.5712,0,U,43820,999,40767,.31582617E-3,.7204E-4,0
SAUDISAT 5A,2018-102A,2026-05-16T08:02:43.107360,15.27699499,.00082128,97.3088,198.5346,241.1692,118.8724,0,U,43831,999,41081,.16569933E-3,.4415E-4,0
SAUDISAT 5B,2018-102C,2026-05-16T03:54:55.840320,15.27971962,.00088902,97.3192,201.3775,245.1038,114.9278,0,U,43833,999,41090,.13086258E-3,.3501E-4,0
2018-102D,2018-102D,2026-05-16T04:24:34.670304,15.63005321,.00053982,97.3447,223.9847,174.3995,185.7325,0,U,43834,999,41224,.60247945E-3,.54815E-3,0
ISAT,2018-111D,2026-05-16T06:25:04.985184,15.59866809,.00079707,97.5910,69.1762,75.9701,284.2441,0,U,43879,999,40618,.89605578E-3,.72523E-3,0
